BLUEBON                 
1 62688U 25009CH  26068.70316231  .00010452  00000+0  37313-3 0  9992
2 62688  97.4017 152.2033 0001193  43.3900 316.7434 15.29047253 63767
STARLINK-32917          
1 62921U 25027Q   26068.50634991  .00032172  00000+0  11731-2 0  9994
2 62921  43.0025 129.9579 0001321 253.0192 107.0515 15.27592054 61519
